NORAD_CAT_ID,OBJECT_NAME,OBJECT_TYPE,EPOCH,MEAN_MOTION,ECCENTRICITY,INCLINATION,RA_OF_ASC_NODE,ARG_OF_PERICENTER,MEAN_ANOMALY,BSTAR,MEAN_MOTION_DOT,MEAN_MOTION_DDOT,TLE_LINE0,TLE_LINE1,TLE_LINE2,SEMIMAJOR_AXIS,PERIOD,APOGEE,PERIGEE,DECAYED
52675.0,STARLINK-3934,PAYLOAD,2023-02-13 10:44:16,15.08854614,0.0001481,53.2173,133.0867,108.4959,251.6195,0.0003309,4.984e-05,0.0,0 STARLINK-3934,1 52675U 22053V   23044.44740885  .00004984  00000-0  33090-3 0  9993,2 52675  53.2173 133.0867 0001481 108.4959 251.6195 15.08854614 41620,6917.836,95.437,540.725,538.676,0.0
52675.0,STARLINK-3934,PAYLOAD,2023-02-13 12:19:38,15.08861505,0.0001525,53.2169,132.7887,109.6429,250.4727,0.00017925,2.568e-05,0.0,0 STARLINK-3934,1 52675U 22053V   23044.51364494  .00002568  00000-0  17925-3 0  9994,2 52675  53.2169 132.7887 0001525 109.6429 250.4727 15.08861505 42061,6917.815,95.436,540.735,538.625,0.0
52675.0,STARLINK-3934,PAYLOAD,2023-02-13 17:05:47,15.0887266,0.0001161,53.2162,131.8964,104.5798,255.5323,0.00056583,8.737e-05,0.0,0 STARLINK-3934,1 52675U 22053V   23044.71235954  .00008737  00000-0  56583-3 0  9991,2 52675  53.2162 131.8964 0001161 104.5798 255.5323 15.08872660 41666,6917.781,95.435,540.449,538.842,0.0
52675.0,STARLINK-3934,PAYLOAD,2023-02-14 12:10:26,15.0884506,0.0001253,53.2167,128.3298,98.0617,262.0517,5.351e-05,5.64e-06,0.0,0 STARLINK-3934,1 52675U 22053V   23045.50724910  .00000564  00000-0  53510-4 0  9992,2 52675  53.2167 128.3298 0001253  98.0617 262.0517 15.08845060 41786,6917.865,95.437,540.597,538.863,0.0
52675.0,STARLINK-3934,PAYLOAD,2023-02-14 16:56:35,15.08876123,0.0001063,53.2163,127.4356,89.6718,270.4396,0.0013791,0.0002175,0.0,0 STARLINK-3934,1 52675U 22053V   23045.70596271  .00021750  00000-0  13791-2 0  9996,2 52675  53.2163 127.4356 0001063  89.6718 270.4396 15.08876123 41810,6917.77,95.435,540.37,538.9,0.0
52675.0,STARLINK-3934,PAYLOAD,2023-02-15 07:15:04,15.08839137,0.0001357,53.2168,124.7602,98.2944,261.8202,0.001911,0.00030256,0.0,0 STARLINK-3934,1 52675U 22053V   23046.30213419  .00030256  00000-0  19110-2 0  9995,2 52675  53.2168 124.7602 0001357  98.2944 261.8202 15.08839137 41906,6917.883,95.438,540.687,538.809,0.0
52675.0,STARLINK-3934,PAYLOAD,2023-02-15 12:01:13,15.0885932,0.0001171,53.2168,123.868,102.7351,257.3772,0.0024315,0.00038642,0.0,0 STARLINK-3934,1 52675U 22053V   23046.50085171  .00038642  00000-0  24315-2 0  9999,2 52675  53.2168 123.8680 0001171 102.7351 257.3772 15.08859320 42368,6917.821,95.436,540.496,538.876,0.0
52675.0,STARLINK-3934,PAYLOAD,2023-02-15 15:11:59,15.08881893,0.0001177,53.2168,123.2732,102.4899,257.6225,0.0037861,0.00060555,0.0,0 STARLINK-3934,1 52675U 22053V   23046.63332926  .00060555  00000-0  37861-2 0  9994,2 52675  53.2168 123.2732 0001177 102.4899 257.6225 15.08881893 41950,6917.752,95.435,540.432,538.803,0.0
52675.0,STARLINK-3934,PAYLOAD,2023-02-16 11:51:59,15.08891792,0.0001427,53.2168,119.4081,106.7809,253.334,0.0026423,0.00042075,0.0,0 STARLINK-3934,1 52675U 22053V   23047.49444036  .00042075  00000-0  26423-2 0  9994,2 52675  53.2168 119.4081 0001427 106.7809 253.3340 15.08891792 42085,6917.722,95.434,540.574,538.6,0.0
52675.0,STARLINK-3934,PAYLOAD,2023-02-16 16:38:08,15.08914749,0.0001084,53.2166,118.5152,77.3187,282.7926,0.0034585,0.00055299,0.0,0 STARLINK-3934,1 52675U 22053V   23047.69315278  .00055299  00000-0  34585-2 0  9991,2 52675  53.2166 118.5152 0001084  77.3187 282.7926 15.08914749 42548,6917.652,95.433,540.267,538.767,0.0
52675.0,STARLINK-3934,PAYLOAD,2023-02-17 03:45:52,15.08778511,7.77e-05,53.2179,116.4352,112.5174,247.5901,0.0028058,0.00044573,0.0,0 STARLINK-3934,1 52675U 22053V   23048.15685243  .00044573  00000-0  28058-2 0  9996,2 52675  53.2179 116.4352 0000777 112.5174 247.5901 15.08778511 42184,6918.068,95.441,540.471,539.396,0.0
52675.0,STARLINK-3934,PAYLOAD,2023-02-17 10:07:25,15.08807438,0.0001133,53.2168,115.2451,112.2269,247.8843,0.0023512,0.00037296,0.0,0 STARLINK-3934,1 52675U 22053V   23048.42181923  .00037296  00000-0  23512-2 0  9996,2 52675  53.2168 115.2451 0001133 112.2269 247.8843 15.08807438 42659,6917.98,95.44,540.629,539.061,0.0
52675.0,STARLINK-3934,PAYLOAD,2023-02-17 21:15:07,15.0882308,0.0001249,53.2173,113.1623,110.3934,249.7192,0.0011097,0.00017409,0.0,0 STARLINK-3934,1 52675U 22053V   23048.88550588  .00017409  00000-0  11097-2 0  9992,2 52675  53.2173 113.1623 0001249 110.3934 249.7192 15.08823080 42726,6917.932,95.439,540.661,538.933,0.0
52675.0,STARLINK-3934,PAYLOAD,2023-02-18 09:58:12,15.08849426,0.0001365,53.2164,110.7839,107.1864,252.9278,0.001527,0.00024104,0.0,0 STARLINK-3934,1 52675U 22053V   23049.41542729  .00024104  00000-0  15270-2 0  9997,2 52675  53.2164 110.7839 0001365 107.1864 252.9278 15.08849426 42805,6917.852,95.437,540.661,538.772,0.0
52675.0,STARLINK-3934,PAYLOAD,2023-02-18 16:19:45,15.08863267,0.0001303,53.2164,109.5941,109.0888,251.0245,0.0016305,0.00025773,0.0,0 STARLINK-3934,1 52675U 22053V   23049.68038397  .00025773  00000-0  16305-2 0  9990,2 52675  53.2164 109.5941 0001303 109.0888 251.0245 15.08863267 42414,6917.809,95.436,540.576,538.773,0.0
52675.0,STARLINK-3934,PAYLOAD,2023-02-18 21:05:54,15.08843437,7.76e-05,53.2172,108.7022,127.5978,232.5085,7.8868e-05,9.68e-06,0.0,0 STARLINK-3934,1 52675U 22053V   23049.87910364  .00000968  00000-0  78868-4 0  9997,2 52675  53.2172 108.7022 0000776 127.5978 232.5085 15.08843437 42448,6917.87,95.437,540.272,539.198,0.0
52675.0,STARLINK-3934,PAYLOAD,2023-02-19 09:48:59,15.0885466,0.0001015,53.2161,106.323,105.408,254.7024,0.0013111,0.00020648,0.0,0 STARLINK-3934,1 52675U 22053V   23050.40902407  .00020648  00000-0  13111-2 0  9992,2 52675  53.2161 106.3230 0001015 105.4080 254.7024 15.08854660 42952,6917.836,95.437,540.403,538.998,0.0
52675.0,STARLINK-3934,PAYLOAD,2023-02-19 20:56:41,15.08852358,0.0001136,53.2163,104.2406,104.3485,255.7633,0.0011713,0.00018409,0.0,0 STARLINK-3934,1 52675U 22053V   23050.87270268  .00018409  00000-0  11713-2 0  9994,2 52675  53.2163 104.2406 0001136 104.3485 255.7633 15.08852358 42596,6917.843,95.437,540.493,538.922,0.0
52675.0,STARLINK-3934,PAYLOAD,2023-02-20 09:39:46,15.08847189,0.0001161,53.2169,101.8643,94.3435,265.769,0.0012231,0.00019235,0.0,0 STARLINK-3934,1 52675U 22053V   23051.40262368  .00019235  00000-0  12231-2 0  9990,2 52675  53.2169 101.8643 0001161  94.3435 265.7690 15.08847189 42678,6917.858,95.437,540.527,538.92,0.0
52675.0,STARLINK-3934,PAYLOAD,2023-02-20 12:50:32,15.0885289,0.0001587,53.218,101.2666,105.0408,255.0759,0.00082404,0.00012856,0.0,0 STARLINK-3934,1 52675U 22053V   23051.53510218  .00012856  00000-0  82404-3 0  9996,2 52675  53.2180 101.2666 0001587 105.0408 255.0759 15.08852890 43126,6917.841,95.437,540.804,538.608,0.0
52675.0,STARLINK-3934,PAYLOAD,2023-02-21 03:09:01,15.08843428,0.000125,53.2146,98.592,102.0676,258.0457,0.00012556,1.711e-05,0.0,0 STARLINK-3934,1 52675U 22053V   23052.13126283  .00001711  00000-0  12556-3 0  9997,2 52675  53.2146  98.5920 0001250 102.0676 258.0457 15.08843428 42786,6917.87,95.437,540.6,538.87,0.0
52675.0,STARLINK-3934,PAYLOAD,2023-02-21 09:30:33,15.08849313,0.0001374,53.2163,97.4035,101.0568,259.0579,0.00017831,2.552e-05,0.0,0 STARLINK-3934,1 52675U 22053V   23052.39622011  .00002552  00000-0  17831-3 0  9990,2 52675  53.2163  97.4035 0001374 101.0568 259.0579 15.08849313 43254,6917.852,95.437,540.667,538.766,0.0
52675.0,STARLINK-3934,PAYLOAD,2023-02-21 14:16:42,15.08857654,0.0001395,53.2158,96.51,103.4212,256.6936,0.00033164,4.997e-05,0.0,0 STARLINK-3934,1 52675U 22053V   23052.59493550  .00004997  00000-0  33164-3 0  9998,2 52675  53.2158  96.5100 0001395 103.4212 256.6936 15.08857654 42858,6917.826,95.436,540.656,538.726,0.0
52675.0,STARLINK-3934,PAYLOAD,2023-02-22 02:59:48,15.08841307,0.0001746,53.2168,94.1303,97.113,263.0061,7.4309e-05,8.95e-06,0.0,0 STARLINK-3934,1 52675U 22053V   23053.12486317  .00000895  00000-0  74309-4 0  9991,2 52675  53.2168  94.1303 0001746  97.1130 263.0061 15.08841307 42934,6917.876,95.437,540.949,538.534,0.0
52675.0,STARLINK-3934,PAYLOAD,2023-02-22 09:21:20,15.08844881,0.0001506,53.2168,92.942,100.6743,259.4419,0.00015387,2.162e-05,0.0,0 STARLINK-3934,1 52675U 22053V   23053.38982125  .00002162  00000-0  15387-3 0  9996,2 52675  53.2168  92.9420 0001506 100.6743 259.4419 15.08844881 43403,6917.865,95.437,540.772,538.689,0.0
52675.0,STARLINK-3934,PAYLOAD,2023-02-22 14:07:29,15.08847058,0.0001414,53.2169,92.0495,103.121,256.994,0.00038379,5.827e-05,0.0,0 STARLINK-3934,1 52675U 22053V   23053.58854003  .00005827  00000-0  38379-3 0  9998,2 52675  53.2169  92.0495 0001414 103.1210 256.9940 15.08847058 43435,6917.859,95.437,540.702,538.746,0.0
52675.0,STARLINK-3934,PAYLOAD,2023-02-23 01:15:12,15.08833656,0.000144,53.2163,89.9691,90.0191,270.0967,1.9913e-05,2.9e-07,0.0,0 STARLINK-3934,1 52675U 22053V   23054.05222627  .00000029  00000-0  19913-4 0  9995,2 52675  53.2163  89.9691 0001440  90.0191 270.0967 15.08833656 43078,6917.9,95.438,540.761,538.769,0.0
52675.0,STARLINK-3934,PAYLOAD,2023-02-23 10:47:31,15.08849401,0.0001204,53.2169,88.1845,97.6403,262.4726,0.0016862,0.00026657,0.0,0 STARLINK-3934,1 52675U 22053V   23054.44966623  .00026657  00000-0  16862-2 0  9992,2 52675  53.2169  88.1845 0001204  97.6403 262.4726 15.08849401 43133,6917.852,95.437,540.55,538.884,0.0
52675.0,STARLINK-3934,PAYLOAD,2023-02-23 12:22:54,15.08850163,0.0001189,53.2168,87.8873,94.9496,265.1632,0.0015215,0.00024016,0.0,0 STARLINK-3934,1 52675U 22053V   23054.51590611  .00024016  00000-0  15215-2 0  9998,2 52675  53.2168  87.8873 0001189  94.9496 265.1632 15.08850163 43574,6917.849,95.437,540.537,538.892,0.0
52675.0,STARLINK-3934,PAYLOAD,2023-02-23 18:44:26,15.08841032,0.0001059,53.2169,86.6968,108.8025,251.3083,0.00048986,7.517e-05,0.0,0 STARLINK-3934,1 52675U 22053V   23054.78086716  .00007517  00000-0  48986-3 0  9992,2 52675  53.2169  86.6968 0001059 108.8025 251.3083 15.08841032 43185,6917.877,95.437,540.475,539.01,0.0
